STARLINK-2620           
1 48453U 21040AB  26068.61827280  .00013618  00000+0  47094-3 0  9992
2 48453  53.1616 178.4535 0002071  50.3086 309.8098 15.30208340266673
TEVEL2-2                
1 63219U 25052K   26068.64848259  .00020339  00000+0  69428-3 0  9991
2 63219  97.3987 324.7700 0004693 105.7930 254.3828 15.30343745 54855
